<?xml version="1.0" encoding="UTF-8"?>
<kml xmlns="http://www.opengis.net/kml/2.2">
<Document>
  <Placemark>
    <name>Circle</name>
    <description><![CDATA[radius 5 km<P>Generated by <a href='http://kml4earth.appspot.com/'>Kml4Earth</a>]]></description>
    <Style>
	<IconStyle>
          <Icon/>
	</IconStyle>
	<LineStyle>
	  <color>ff0000ff</color>
	  <width>2</width>
	</LineStyle>
    </Style>
    <LineString>
	<tessellate>1</tessellate>
	<coordinates> 17.03221929084795,60.243269309896476,0.0 17.031229258918472,60.249958503963285,0.0 17.028243675190627,60.25649958493294,0.0 17.023328126917963,60.26274630522324,0.0 17.01659151777604,60.26855891790718,0.0 17.008183715709226,60.27380731664609,0.0 16.998292260453056,60.27837396534539,0.0 16.987138199261267,60.282156550019316,0.0 16.974971141540347,60.28507029128124,0.0 16.96206364346713,60.28704986339064,0.0 16.948705051515546,60.28805087472889,0.0 16.93519494848445,60.28805087472889,0.0 16.92183635653287,60.28704986339064,0.0 16.90892885845965,60.28507029128124,0.0 16.89676180073873,60.282156550019316,0.0 16.88560773954694,60.27837396534539,0.0 16.875716284290775,60.27380731664609,0.0 16.867308482223958,60.26855891790718,0.0 16.86057187308203,60.26274630522324,0.0 16.855656324809367,60.25649958493294,0.0 16.85267074108152,60.249958503963285,0.0 16.851680709152053,60.24326930989648,0.0 16.85270713331482,60.23658147251043,0.0 16.855725875685902,60.23004434103694,0.0 16.86066840273356,60.22380381213072,0.0 16.867423413601205,60.217999082590374,0.0 16.87583940526015,60.21275955830547,0.0 16.88572811027519,60.20820198683786,0.0 16.896868725743328,60.20442787562092,0.0 16.909012836954602,60.20152125113525,0.0 16.921889926625717,60.19954680676138,0.0 16.935213350210173,60.19854847849307,0.0 16.94868664978982,60.19854847849307,0.0 16.962010073374284,60.19954680676138,0.0 16.974887163045395,60.20152125113525,0.0 16.987031274256672,60.20442787562092,0.0 16.99817188972481,60.20820198683786,0.0 17.008060594739852,60.21275955830547,0.0 17.01647658639879,60.217999082590374,0.0 17.023231597266438,60.22380381213072,0.0 17.0281741243141,60.23004434103694,0.0 17.03119286668518,60.23658147251043,0.0 17.03221929084795,60.243269309896476,0.0</coordinates>
    </LineString>
  </Placemark>
  <Placemark>
    <name>center point</name>
    <visibility>0</visibility>
	<Style>
	<IconStyle>
	<Icon>
	 <href>http://maps.google.com/mapfiles/kml/shapes/cross-hairs_highlight.png</href>
	</Icon>
	</IconStyle>
	</Style>
    <Point>
	<coordinates>16.94195,60.2433</coordinates>
    </Point>
  </Placemark>
</Document>
</kml>
